GLOBALSTAR M070         
1 32264U 07048B   23306.00656328 -.00000090  00000+0  78404-4 0  9996
2 32264  51.9726 135.5115 0000688 109.2909  56.4992 12.62281386739735
GLOBALSTAR M066         
1 32265U 07048C   23306.16933034 -.00000071  00000+0  18449-3 0  9997
2 32265  51.9701 357.0735 0000616  74.2433 303.7074 12.62275333741986
GLOBALSTAR M079         
1 37188U 10054A   23306.03247150 -.00000099  00000+0  25794-4 0  9992
2 37188  52.0016 145.4451 0001157  87.1922  77.9644 12.62269631602227
GLOBALSTAR M074         
1 37189U 10054B   23306.06079400 -.00000098  00000+0  34493-4 0  9992
2 37189  51.9994 144.7727 0000957  91.4951  82.9089 12.62271728602225
GLOBALSTAR M076         
1 37190U 10054C   23306.00608764 -.00000079  00000+0  13789-3 0  9992
2 37190  52.0005 145.0573 0001421 106.5194  58.4762 12.62263260602227
GLOBALSTAR M077         
1 37191U 10054D   23305.72220054 -.00000111  00000+0 -40884-4 0  9998
2 37191  52.0052 102.6052 0000858 106.6100 266.8711 12.62268063602205
GLOBALSTAR M067 [+]     
1 32263U 07048A   23306.22174726 -.00000096  00000+0  76705-5 0  9995
2 32263  51.9746 330.9376 0000972 141.2620 294.3093 12.40633173736124
GLOBALSTAR M068 [-]     
1 32266U 07048D   23305.78254610 -.00000041  00000+0  34828-3 0  9997
2 32266  51.9890 311.0678 0000544 285.2052 245.4747 12.62769912742580
